{
    "links": {
        "self": "http://www.neowsapp.com/rest/v1/neo/3313737?api_key=iIulBulltgU6a56xZRHN4H3l9WmuAYTsLGpBGhQ2"
    },
    "id": "3313737",
    "neo_reference_id": "3313737",
    "name": "(2006 BB9)",
    "designation": "2006 BB9",
    "nasa_jpl_url": "http://ssd.jpl.nasa.gov/sbdb.cgi?sstr=3313737",
    "absolute_magnitude_h": 25.8,
    "estimated_diameter": {
        "kilometers": {
            "estimated_diameter_min": 0.0183888672,
            "estimated_diameter_max": 0.0411187571
        },
        "meters": {
            "estimated_diameter_min": 18.388867207,
            "estimated_diameter_max": 41.1187571041
        },
        "miles": {
            "estimated_diameter_min": 0.0114263088,
            "estimated_diameter_max": 0.0255500032
        },
        "feet": {
            "estimated_diameter_min": 60.3309310875,
            "estimated_diameter_max": 134.9040630575
        }
    },
    "is_potentially_hazardous_asteroid": false,
    "close_approach_data": [
        {
            "close_approach_date": "2006-01-19",
            "close_approach_date_full": "2006-Jan-19 06:20",
            "epoch_date_close_approach": 1137651600000,
            "relative_velocity": {
                "kilometers_per_second": "13.6594236669",
                "kilometers_per_hour": "49173.925200899",
                "miles_per_hour": "30554.7648005253"
            },
            "miss_distance": {
                "astronomical": "0.0108631447",
                "lunar": "4.2257632883",
                "kilometers": "1625103.308621789",
                "miles": "1009792.3712831282"
            },
            "orbiting_body": "Earth"
        }
    ],
    "orbital_data": {
        "orbit_id": "12",
        "orbit_determination_date": "2017-04-06 09:09:18",
        "first_observation_date": "2006-01-24",
        "last_observation_date": "2006-02-01",
        "data_arc_in_days": 8,
        "observations_used": 36,
        "orbit_uncertainty": "8",
        "minimum_orbit_intersection": ".00899796",
        "jupiter_tisserand_invariant": "2.993",
        "epoch_osculation": "2453763.5",
        "eccentricity": ".6731289898136185",
        "semi_major_axis": "2.685904732304378",
        "inclination": "6.7030481860674",
        "ascending_node_longitude": "302.345994196089",
        "orbital_period": "1607.808548684314",
        "perihelion_distance": ".8779443931127149",
        "perihelion_argument": "132.2915115972799",
        "aphelion_distance": "4.493865071496042",
        "perihelion_time": "2453723.969772268600",
        "mean_anomaly": "8.851104812789604",
        "mean_motion": ".2239072558076592",
        "equinox": "J2000",
        "orbit_class": {
            "orbit_class_type": "APO",
            "orbit_class_description": "Near-Earth asteroid orbits which cross the Earth’s orbit similar to that of 1862 Apollo",
            "orbit_class_range": "a (semi-major axis) > 1.0 AU; q (perihelion) < 1.017 AU"
        }
    },
    "is_sentry_object": false
}